EUTELSAT 139 WEST A     
1 28187U 04008A   26021.26830473 -.00000044  00000+0  00000+0 0  9999
2 28187   5.4553  73.8005 0003570 146.9088 233.0106  1.00841537 79880
EUTELSAT 174A           
1 28924U 05052A   26021.46989517  .00000021  00000+0  00000+0 0  9998
2 28924   3.8453  78.3777 0006323 224.1884 161.4081  1.00269877 50862
EUTELSAT 33F            
1 29270U 06032A   26021.29933161  .00000169  00000+0  00000+0 0  9990
2 29270   1.2810  84.0131 0003440 216.9441 320.5563  1.00268591 45835
EUTELSAT HOTBIRD 13C    
1 33459U 08065A   26021.42543493 -.00000270  00000+0  00000+0 0  9996
2 33459   2.5718  80.9831 0003480 227.8534 274.7841  1.00273739 45873
EUTELSAT 36B            
1 36101U 09065A   26021.44545503  .00000126  00000+0  00000+0 0  9999
2 36101   0.1196  69.8150 0005816 234.1603  27.6734  1.00270950 59230
EUTELSAT KA-SAT 9A      
1 37258U 10069A   26021.36589199  .00000075  00000+0  00000+0 0  9992
2 37258   0.0512 342.3463 0002092 184.6034  94.4786  1.00270887 42534
EUTELSAT 7 WEST A       
1 37816U 11051A   26021.43384164 -.00000046  00000+0  00000+0 0  9996
2 37816   0.0743 325.9633 0004097 270.6259  33.0800  1.00272249 52405
EUTELSAT 16A            
1 37836U 11057A   26021.36710535  .00000118  00000+0  00000+0 0  9990
2 37836   0.0543   7.5063 0005262 293.5464 327.8049  1.00270904  5854
